[{"OBJECT_NAME":"NOAA 18","OBJECT_ID":"2005-018A","EPOCH":"2026-03-25T12:53:17.007360","MEAN_MOTION":14.13713991,"ECCENTRICITY":0.00147234,"INCLINATION":98.8136,"RA_OF_ASC_NODE":165.4207,"ARG_OF_PERICENTER":32.8343,"MEAN_ANOMALY":327.3742,"EPHEMERIS_TYPE":0,"CLASSIFICATION_TYPE":"U","NORAD_CAT_ID":28654,"ELEMENT_SET_NO":999,"REV_AT_EPOCH":7449,"BSTAR":4.6134877e-5,"MEAN_MOTION_DOT":4.3e-7,"MEAN_MOTION_DDOT":0},{"OBJECT_NAME":"NOAA 19","OBJECT_ID":"2009-005A","EPOCH":"2026-03-25T19:17:59.101728","MEAN_MOTION":14.13459776,"ECCENTRICITY":0.0012705,"INCLINATION":98.9577,"RA_OF_ASC_NODE":155.6001,"ARG_OF_PERICENTER":265.5059,"MEAN_ANOMALY":94.4662,"EPHEMERIS_TYPE":0,"CLASSIFICATION_TYPE":"U","NORAD_CAT_ID":33591,"ELEMENT_SET_NO":999,"REV_AT_EPOCH":88270,"BSTAR":4.0016e-5,"MEAN_MOTION_DOT":3.0e-7,"MEAN_MOTION_DDOT":0},{"OBJECT_NAME":"SUOMI NPP","OBJECT_ID":"2011-061A","EPOCH":"2026-03-25T14:27:38.820960","MEAN_MOTION":14.19497539,"ECCENTRICITY":0.00014952,"INCLINATION":98.7888,"RA_OF_ASC_NODE":26.0803,"ARG_OF_PERICENTER":166.8089,"MEAN_ANOMALY":193.3126,"EPHEMERIS_TYPE":0,"CLASSIFICATION_TYPE":"U","NORAD_CAT_ID":37849,"ELEMENT_SET_NO":999,"REV_AT_EPOCH":74658,"BSTAR":6.6381802e-5,"MEAN_MOTION_DOT":9.6e-7,"MEAN_MOTION_DDOT":0},{"OBJECT_NAME":"NOAA 20 (JPSS-1)","OBJECT_ID":"2017-073A","EPOCH":"2026-03-25T14:48:33.412032","MEAN_MOTION":14.19540057,"ECCENTRICITY":0.00017965,"INCLINATION":98.7709,"RA_OF_ASC_NODE":24.8476,"ARG_OF_PERICENTER":116.4213,"MEAN_ANOMALY":243.7148,"EPHEMERIS_TYPE":0,"CLASSIFICATION_TYPE":"U","NORAD_CAT_ID":43013,"ELEMENT_SET_NO":999,"REV_AT_EPOCH":43261,"BSTAR":5.410837e-5,"MEAN_MOTION_DOT":7.0e-7,"MEAN_MOTION_DDOT":0}]
