NOAA 18                 
1 28654U 05018A   26084.53700240  .00000043  00000+0  46135-4 0  9999
2 28654  98.8136 165.4207 0014723  32.8343 327.3742 14.13713991 74498
NOAA 19                 
1 33591U 09005A   26084.80415627  .00000030  00000+0  40016-4 0  9995
2 33591  98.9577 155.6001 0012705 265.5059  94.4662 14.13459776882706
SUOMI NPP               
1 37849U 11061A   26084.60253265  .00000096  00000+0  66382-4 0  9992
2 37849  98.7888  26.0803 0001495 166.8089 193.3126 14.19497539746584
NOAA 20 (JPSS-1)        
1 43013U 17073A   26084.61705338  .00000070  00000+0  54108-4 0  9990
2 43013  98.7709  24.8476 0001796 116.4213 243.7148 14.19540057432616
